IRIDIUM 166             
1 43570U 18061B   24034.51423563  .00000059  00000+0  13976-4 0  9990
2 43570  86.3928  58.0948 0001824  94.9771 265.1633 14.34215907289464
IRIDIUM 158             
1 43571U 18061C   24034.55229444  .00000061  00000+0  14728-4 0  9996
2 43571  86.3927  58.0874 0002175  97.7384 262.4059 14.34216277289433
IRIDIUM 165             
1 43572U 18061D   24034.50789598  .00000153  00000+0  47419-4 0  9998
2 43572  86.3930  58.1361 0002169 100.4054 259.7386 14.34216915289452
IRIDIUM 155             
1 43573U 18061E   24034.53960805  .00000031  00000+0  39955-5 0  9996
2 43573  86.3924  58.0343 0002024  85.1778 274.9648 14.34216360289428
IRIDIUM 154             
1 43574U 18061F   24034.52058289 -.00000254  00000+0 -97912-4 0  9995
2 43574  86.3925  58.1336 0002321  88.7267 271.4195 14.34216827289477
IRIDIUM 163             
1 43575U 18061G   24034.50155471  .00000201  00000+0  64887-4 0  9990
2 43575  86.3927  58.0843 0002289  89.2297 270.9161 14.34217218289443
IRIDIUM 156             
1 43576U 18061H   24034.54594341  .00000308  00000+0  10301-3 0  9997
2 43576  86.3928  58.0715 0002028  96.5606 263.5821 14.34221667289443
IRIDIUM 164             
1 43577U 18061J   24034.52692230  .00000133  00000+0  40340-4 0  9995
2 43577  86.3928  58.1065 0002280  97.6098 262.5357 14.34216497289482
